[{"OBJECT_NAME":"METEOSAT-11 (MSG-4)","OBJECT_ID":"2015-034A","EPOCH":"2026-04-05T05:28:38.784288","MEAN_MOTION":1.00276148,"ECCENTRICITY":0.0001745,"INCLINATION":3.0186,"RA_OF_ASC_NODE":71.491,"ARG_OF_PERICENTER":284.9949,"MEAN_ANOMALY":288.5195,"EPHEMERIS_TYPE":0,"CLASSIFICATION_TYPE":"U","NORAD_CAT_ID":40732,"ELEMENT_SET_NO":999,"REV_AT_EPOCH":648,"BSTAR":0,"MEAN_MOTION_DOT":6.5e-7,"MEAN_MOTION_DDOT":0},{"OBJECT_NAME":"ELEKTRO-L 2","OBJECT_ID":"2015-074A","EPOCH":"2026-04-05T05:49:47.989056","MEAN_MOTION":1.00272399,"ECCENTRICITY":0.000258,"INCLINATION":6.512,"RA_OF_ASC_NODE":71.409,"ARG_OF_PERICENTER":258.9088,"MEAN_ANOMALY":296.2004,"EPHEMERIS_TYPE":0,"CLASSIFICATION_TYPE":"U","NORAD_CAT_ID":41105,"ELEMENT_SET_NO":999,"REV_AT_EPOCH":3777,"BSTAR":0,"MEAN_MOTION_DOT":-1.14e-6,"MEAN_MOTION_DDOT":0},{"OBJECT_NAME":"INSAT-3DR","OBJECT_ID":"2016-054A","EPOCH":"2026-04-05T13:16:15.604896","MEAN_MOTION":1.0027389,"ECCENTRICITY":0.00120551,"INCLINATION":0.1304,"RA_OF_ASC_NODE":86.7609,"ARG_OF_PERICENTER":196.6352,"MEAN_ANOMALY":183.535,"EPHEMERIS_TYPE":0,"CLASSIFICATION_TYPE":"U","NORAD_CAT_ID":41752,"ELEMENT_SET_NO":999,"REV_AT_EPOCH":3509,"BSTAR":0,"MEAN_MOTION_DOT":-7.6e-7,"MEAN_MOTION_DDOT":0},{"OBJECT_NAME":"HIMAWARI-9","OBJECT_ID":"2016-064A","EPOCH":"2026-04-05T12:52:02.764704","MEAN_MOTION":1.00270979,"ECCENTRICITY":0.0001267,"INCLINATION":0.0494,"RA_OF_ASC_NODE":107.0589,"ARG_OF_PERICENTER":293.007,"MEAN_ANOMALY":127.5527,"EPHEMERIS_TYPE":0,"CLASSIFICATION_TYPE":"U","NORAD_CAT_ID":41836,"ELEMENT_SET_NO":999,"REV_AT_EPOCH":3448,"BSTAR":0,"MEAN_MOTION_DOT":-2.73e-6,"MEAN_MOTION_DDOT":0},{"OBJECT_NAME":"GOES 16","OBJECT_ID":"2016-071A","EPOCH":"2026-04-05T12:14:50.341632","MEAN_MOTION":1.00272287,"ECCENTRICITY":0.00018177,"INCLINATION":0.1754,"RA_OF_ASC_NODE":85.2811,"ARG_OF_PERICENTER":247.7312,"MEAN_ANOMALY":299.8111,"EPHEMERIS_TYPE":0,"CLASSIFICATION_TYPE":"U","NORAD_CAT_ID":41866,"ELEMENT_SET_NO":999,"REV_AT_EPOCH":3437,"BSTAR":0,"MEAN_MOTION_DOT":-8.9e-7,"MEAN_MOTION_DDOT":0},{"OBJECT_NAME":"FENGYUN 4A","OBJECT_ID":"2016-077A","EPOCH":"2026-04-05T15:02:37.862304","MEAN_MOTION":1.00278388,"ECCENTRICITY":0.00078643,"INCLINATION":2.1391,"RA_OF_ASC_NODE":81.018,"ARG_OF_PERICENTER":139.101,"MEAN_ANOMALY":323.1197,"EPHEMERIS_TYPE":0,"CLASSIFICATION_TYPE":"U","NORAD_CAT_ID":41882,"ELEMENT_SET_NO":999,"REV_AT_EPOCH":3420,"BSTAR":0,"MEAN_MOTION_DOT":-3.54e-6,"MEAN_MOTION_DDOT":0},{"OBJECT_NAME":"CYGFM05","OBJECT_ID":"2016-078A","EPOCH":"2026-04-05T02:57:33.205536","MEAN_MOTION":15.53585748,"ECCENTRICITY":0.00070713,"INCLINATION":34.9588,"RA_OF_ASC_NODE":23.2481,"ARG_OF_PERICENTER":195.7736,"MEAN_ANOMALY":164.2768,"EPHEMERIS_TYPE":0,"CLASSIFICATION_TYPE":"U","NORAD_CAT_ID":41884,"ELEMENT_SET_NO":999,"REV_AT_EPOCH":51737,"BSTAR":0.00043634241,"MEAN_MOTION_DOT":0.00028781,"MEAN_MOTION_DDOT":0},{"OBJECT_NAME":"CYGFM04","OBJECT_ID":"2016-078B","EPOCH":"2026-04-05T02:36:53.443296","MEAN_MOTION":15.57615584,"ECCENTRICITY":0.00070905,"INCLINATION":34.9342,"RA_OF_ASC_NODE":354.3852,"ARG_OF_PERICENTER":236.6933,"MEAN_ANOMALY":123.3113,"EPHEMERIS_TYPE":0,"CLASSIFICATION_TYPE":"U","NORAD_CAT_ID":41885,"ELEMENT_SET_NO":999,"REV_AT_EPOCH":51758,"BSTAR":0.00047205223,"MEAN_MOTION_DOT":0.00036198,"MEAN_MOTION_DDOT":0},{"OBJECT_NAME":"CYGFM02","OBJECT_ID":"2016-078C","EPOCH":"2026-04-05T02:24:09.924768","MEAN_MOTION":15.59832671,"ECCENTRICITY":0.00080149,"INCLINATION":34.9424,"RA_OF_ASC_NODE":350.7721,"ARG_OF_PERICENTER":235.5477,"MEAN_ANOMALY":124.4491,"EPHEMERIS_TYPE":0,"CLASSIFICATION_TYPE":"U","NORAD_CAT_ID":41886,"ELEMENT_SET_NO":999,"REV_AT_EPOCH":51773,"BSTAR":0.00046507312,"MEAN_MOTION_DOT":0.00038823,"MEAN_MOTION_DDOT":0},{"OBJECT_NAME":"CYGFM01","OBJECT_ID":"2016-078D","EPOCH":"2026-04-05T04:56:14.561376","MEAN_MOTION":15.54167669,"ECCENTRICITY":0.0006603,"INCLINATION":34.9419,"RA_OF_ASC_NODE":24.3155,"ARG_OF_PERICENTER":189.9988,"MEAN_ANOMALY":170.0605,"EPHEMERIS_TYPE":0,"CLASSIFICATION_TYPE":"U","NORAD_CAT_ID":41887,"ELEMENT_SET_NO":999,"REV_AT_EPOCH":51733,"BSTAR":0.00044045,"MEAN_MOTION_DOT":0.00029679,"MEAN_MOTION_DDOT":0},{"OBJECT_NAME":"CYGFM08","OBJECT_ID":"2016-078E","EPOCH":"2026-04-05T02:05:03.588576","MEAN_MOTION":15.56383482,"ECCENTRICITY":0.00086829,"INCLINATION":34.9454,"RA_OF_ASC_NODE":6.4262,"ARG_OF_PERICENTER":215.9946,"MEAN_ANOMALY":144.0194,"EPHEMERIS_TYPE":0,"CLASSIFICATION_TYPE":"U","NORAD_CAT_ID":41888,"ELEMENT_SET_NO":999,"REV_AT_EPOCH":51756,"BSTAR":0.00044499297,"MEAN_MOTION_DOT":0.00032582,"MEAN_MOTION_DDOT":0},{"OBJECT_NAME":"CYGFM07","OBJECT_ID":"2016-078G","EPOCH":"2026-04-05T02:44:33.771264","MEAN_MOTION":15.56463284,"ECCENTRICITY":0.00075286,"INCLINATION":34.9466,"RA_OF_ASC_NODE":354.6442,"ARG_OF_PERICENTER":235.2612,"MEAN_ANOMALY":124.7404,"EPHEMERIS_TYPE":0,"CLASSIFICATION_TYPE":"U","NORAD_CAT_ID":41890,"ELEMENT_SET_NO":999,"REV_AT_EPOCH":51759,"BSTAR":0.00046542273,"MEAN_MOTION_DOT":0.00034174,"MEAN_MOTION_DDOT":0},{"OBJECT_NAME":"CYGFM03","OBJECT_ID":"2016-078H","EPOCH":"2026-04-05T09:44:38.908032","MEAN_MOTION":15.56485677,"ECCENTRICITY":0.0006543,"INCLINATION":34.9424,"RA_OF_ASC_NODE":354.6769,"ARG_OF_PERICENTER":227.5272,"MEAN_ANOMALY":132.4899,"EPHEMERIS_TYPE":0,"CLASSIFICATION_TYPE":"U","NORAD_CAT_ID":41891,"ELEMENT_SET_NO":999,"REV_AT_EPOCH":51761,"BSTAR":0.00046034442,"MEAN_MOTION_DOT":0.00033817,"MEAN_MOTION_DDOT":0},{"OBJECT_NAME":"FENGYUN 3D","OBJECT_ID":"2017-072A","EPOCH":"2026-04-05T15:04:52.483872","MEAN_MOTION":14.19723159,"ECCENTRICITY":4.456e-5,"INCLINATION":99.0076,"RA_OF_ASC_NODE":68.7632,"ARG_OF_PERICENTER":248.4293,"MEAN_ANOMALY":111.6835,"EPHEMERIS_TYPE":0,"CLASSIFICATION_TYPE":"U","NORAD_CAT_ID":43010,"ELEMENT_SET_NO":999,"REV_AT_EPOCH":43469,"BSTAR":6.6512992e-5,"MEAN_MOTION_DOT":9.5e-7,"MEAN_MOTION_DDOT":0},{"OBJECT_NAME":"NOAA 20 (JPSS-1)","OBJECT_ID":"2017-073A","EPOCH":"2026-04-05T13:00:47.220480","MEAN_MOTION":14.19543446,"ECCENTRICITY":0.00020419,"INCLINATION":98.7724,"RA_OF_ASC_NODE":35.6676,"ARG_OF_PERICENTER":101.4114,"MEAN_ANOMALY":258.7291,"EPHEMERIS_TYPE":0,"CLASSIFICATION_TYPE":"U","NORAD_CAT_ID":43013,"ELEMENT_SET_NO":999,"REV_AT_EPOCH":43416,"BSTAR":7.7049037e-5,"MEAN_MOTION_DOT":1.18e-6,"MEAN_MOTION_DDOT":0},{"OBJECT_NAME":"GOES 17","OBJECT_ID":"2018-022A","EPOCH":"2026-04-05T12:19:12.423072","MEAN_MOTION":1.00271544,"ECCENTRICITY":0.00011885,"INCLINATION":0.751,"RA_OF_ASC_NODE":86.7864,"ARG_OF_PERICENTER":260.2321,"MEAN_ANOMALY":302.0968,"EPHEMERIS_TYPE":0,"CLASSIFICATION_TYPE":"U","NORAD_CAT_ID":43226,"ELEMENT_SET_NO":999,"REV_AT_EPOCH":2969,"BSTAR":0,"MEAN_MOTION_DOT":-1.81e-6,"MEAN_MOTION_DDOT":0},{"OBJECT_NAME":"FENGYUN 2H","OBJECT_ID":"2018-050A","EPOCH":"2026-04-05T14:49:54.082848","MEAN_MOTION":1.00270645,"ECCENTRICITY":0.00011182,"INCLINATION":2.8439,"RA_OF_ASC_NODE":79.9399,"ARG_OF_PERICENTER":169.9039,"MEAN_ANOMALY":245.5822,"EPHEMERIS_TYPE":0,"CLASSIFICATION_TYPE":"U","NORAD_CAT_ID":43491,"ELEMENT_SET_NO":999,"REV_AT_EPOCH":2871,"BSTAR":0,"MEAN_MOTION_DOT":-1.24e-6,"MEAN_MOTION_DDOT":0}]
