METEOSAT-11 (MSG-4)     
1 40732U 15034A   26095.22822667  .00000065  00000+0  00000+0 0  9995
2 40732   3.0186  71.4910 0001745 284.9949 288.5195  1.00276148  6485
ELEKTRO-L 2             
1 41105U 15074A   26095.24291654 -.00000114  00000+0  00000+0 0  9998
2 41105   6.5120  71.4090 0002580 258.9088 296.2004  1.00272399 37773
INSAT-3DR               
1 41752U 16054A   26095.55295839 -.00000076  00000+0  00000+0 0  9995
2 41752   0.1304  86.7609 0012055 196.6352 183.5350  1.00273890 35092
HIMAWARI-9              
1 41836U 16064A   26095.53614311 -.00000273  00000+0  00000+0 0  9996
2 41836   0.0494 107.0589 0001267 293.0070 127.5527  1.00270979 34481
GOES 16                 
1 41866U 16071A   26095.51030488 -.00000089  00000+0  00000+0 0  9997
2 41866   0.1754  85.2811 0001817 247.7312 299.8111  1.00272287 34379
FENGYUN 4A              
1 41882U 16077A   26095.62682711 -.00000354  00000+0  00000+0 0  9990
2 41882   2.1391  81.0180 0007864 139.1010 323.1197  1.00278388 34201
CYGFM05                 
1 41884U 16078A   26095.12330099  .00028781  00000+0  43634-3 0  9994
2 41884  34.9588  23.2481 0007071 195.7736 164.2768 15.53585748517375
CYGFM04                 
1 41885U 16078B   26095.10895189  .00036198  00000+0  47205-3 0  9998
2 41885  34.9342 354.3852 0007090 236.6933 123.3113 15.57615584517588
CYGFM02                 
1 41886U 16078C   26095.10011487  .00038823  00000+0  46507-3 0  9991
2 41886  34.9424 350.7721 0008014 235.5477 124.4491 15.59832671517731
CYGFM01                 
1 41887U 16078D   26095.20572409  .00029679  00000+0  44045-3 0  9993
2 41887  34.9419  24.3155 0006603 189.9988 170.0605 15.54167669517335
CYGFM08                 
1 41888U 16078E   26095.08684709  .00032582  00000+0  44499-3 0  9997
2 41888  34.9454   6.4262 0008682 215.9946 144.0194 15.56383482517562
CYGFM07                 
1 41890U 16078G   26095.11427976  .00034174  00000+0  46542-3 0  9995
2 41890  34.9466 354.6442 0007528 235.2612 124.7404 15.56463284517590
CYGFM03                 
1 41891U 16078H   26095.40600588  .00033817  00000+0  46034-3 0  9999
2 41891  34.9424 354.6769 0006543 227.5272 132.4899 15.56485677517616
FENGYUN 3D              
1 43010U 17072A   26095.62838523  .00000095  00000+0  66513-4 0  9992
2 43010  99.0076  68.7632 0000445 248.4293 111.6835 14.19723159434691
NOAA 20 (JPSS-1)        
1 43013U 17073A   26095.54221320  .00000118  00000+0  77049-4 0  9990
2 43013  98.7724  35.6676 0002041 101.4114 258.7291 14.19543446434165
GOES 17                 
1 43226U 18022A   26095.51333823 -.00000181  00000+0  00000+0 0  9999
2 43226   0.7510  86.7864 0001188 260.2321 302.0968  1.00271544 29693
FENGYUN 2H              
1 43491U 18050A   26095.61798707 -.00000124  00000+0  00000+0 0  9998
2 43491   2.8439  79.9399 0001118 169.9039 245.5822  1.00270645 28714
